[{"OBJECT_NAME":"LEMUR-2-AHMED-ASRAR","OBJECT_ID":"2024-149DN","EPOCH":"2026-03-09T17:35:01.338432","MEAN_MOTION":15.10376432,"ECCENTRICITY":0.00016334,"INCLINATION":97.7021,"RA_OF_ASC_NODE":152.9847,"ARG_OF_PERICENTER":18.5035,"MEAN_ANOMALY":341.6253,"EPHEMERIS_TYPE":0,"CLASSIFICATION_TYPE":"U","NORAD_CAT_ID":60576,"ELEMENT_SET_NO":999,"REV_AT_EPOCH":8554,"BSTAR":0.0007977347,"MEAN_MOTION_DOT":0.00013045,"MEAN_MOTION_DDOT":0},{"OBJECT_NAME":"FTV 3502","OBJECT_ID":"1962-039A","EPOCH":"2026-03-09T21:41:26.705184","MEAN_MOTION":14.91961609,"ECCENTRICITY":0.00806549,"INCLINATION":98.4622,"RA_OF_ASC_NODE":145.9901,"ARG_OF_PERICENTER":91.4356,"MEAN_ANOMALY":269.6102,"EPHEMERIS_TYPE":0,"CLASSIFICATION_TYPE":"U","NORAD_CAT_ID":369,"ELEMENT_SET_NO":999,"REV_AT_EPOCH":40080,"BSTAR":0.00025514942,"MEAN_MOTION_DOT":2.681e-5,"MEAN_MOTION_DDOT":0}]
